{
  "norad_id": 69095,
  "name": "2026-105A",
  "history": [
    {
      "epoch": "2026-05-14T23:14:55.688640Z",
      "apogee_km": 897.3195107411511,
      "perigee_km": 204.70371167443136,
      "latitude_deg": -5.761407606439517e-05,
      "longitude_deg": -22.691523025293275,
      "height_km": 388.12908069801426,
      "semi_major_axis_km": 6929.148611207791,
      "eccentricity": 0.04997842,
      "inclination_deg": 88.9812,
      "raan_deg": 198.7474,
      "arg_perigee_deg": 64.0238,
      "mean_anomaly_deg": 301.1595,
      "mean_motion_rev_day": 15.0516097
    }
  ]
}