{"fetched_at":"2026-05-16T09:32:17Z","count":15954,"tles":[{"name":"2026-104A","line1":"1 69095U 26104A   26134.96870010  .00157376 -11758-5  39361-3 0  9991","line2":"2 69095  88.9812 198.7474 0499784  64.0238 301.1595 15.05160970   133","category":"Other"}]}